{"type": "FeatureCollection", "features": [ {"type": "Feature", "properties": {"norad_id": 30702, "name": "FENGYUN 1C DEB", "group": "fengyun-1c-debris", "lat": 21.732686325739998, "lon": -3.145855390208259, "alt_km": 857.5192809101691, "timestamp": "2025-12-06T07:31:40.515100+00:00", "meta": {"OBJECT_NAME": "FENGYUN 1C DEB", "OBJECT_ID": "1999-025ARL", "EPOCH": "2025-12-05T07:34:42.796704", "MEAN_MOTION": 14.03566146, "ECCENTRICITY": 0.00684667, "INCLINATION": 98.7706, "RA_OF_ASC_NODE": 359.4198, "ARG_OF_PERICENTER": 322.9554, "MEAN_ANOMALY": 59.07, "EPHEMERIS_TYPE": 0, "CLASSIFICATION_TYPE": "U", "NORAD_CAT_ID": 30702, "ELEMENT_SET_NO": 999, "REV_AT_EPOCH": 96058, "BSTAR": 0.0011191176, "MEAN_MOTION_DOT": 1.75e-05, "MEAN_MOTION_DDOT": 0}, "tle": {"line1": "1 30702U 99025ARL 25339.31577311  .00001750  00000+0  11191-2 0  9994", "line2": "2 30702  98.7706 359.4198 0068466 322.9554  59.0700 14.03566146960585"}}, "geometry": {"type": "Point", "coordinates": [-3.145855390208259, 21.732686325739998]}}, {"type": "Feature", "properties": {"norad_id": 30703, "name": "FENGYUN 1C DEB", "group": "fengyun-1c-debris", "lat": 58.778884451770146, "lon": 160.5431132869595, "alt_km": 905.868958698501, "timestamp": "2025-12-06T07:31:40.515110+00:00", "meta": {"OBJECT_NAME": "FENGYUN 1C DEB", "OBJECT_ID": "1999-025ARM", "EPOCH": "2025-12-03T21:43:46.657632", "MEAN_MOTION": 14.19246261, "ECCENTRICITY": 0.01182671, "INCLINATION": 99.1409, "RA_OF_ASC_NODE": 322.6545, "ARG_OF_PERICENTER": 317.152, "MEAN_ANOMALY": 104.7477, "EPHEMERIS_TYPE": 0, "CLASSIFICATION_TYPE": "U", "NORAD_CAT_ID": 30703, "ELEMENT_SET_NO": 999, "REV_AT_EPOCH": 96415, "BSTAR": 0.002570031, "MEAN_MOTION_DOT": 5.734e-05, "MEAN_MOTION_DDOT": 0}, "tle": {"line1": "1 30703U 99025ARM 25337.90540113  .00005734  00000+0  25700-2 0  9995", "line2": "2 30703  99.1409 322.6545 0118267 317.1520 104.7477 14.19246261964159"}}, "geometry": {"type": "Point", "coordinates": [160.5431132869595, 58.778884451770146]}}, {"type": "Feature", "properties": {"norad_id": 30704, "name": "FENGYUN 1C DEB", "group": "fengyun-1c-debris", "lat": 75.91597388883672, "lon": -162.27573745462888, "alt_km": 822.6311014295134, "timestamp": "2025-12-06T07:31:40.515120+00:00", "meta": {"OBJECT_NAME": "FENGYUN 1C DEB", "OBJECT_ID": "1999-025ARN", "EPOCH": "2025-12-04T12:49:38.938080", "MEAN_MOTION": 14.02032589, "ECCENTRICITY": 0.0081656, "INCLINATION": 98.8707, "RA_OF_ASC_NODE": 337.4964, "ARG_OF_PERICENTER": 122.4922, "MEAN_ANOMALY": 3.5624, "EPHEMERIS_TYPE": 0, "CLASSIFICATION_TYPE": "U", "NORAD_CAT_ID": 30704, "ELEMENT_SET_NO": 999, "REV_AT_EPOCH": 95996, "BSTAR": 0.00060217, "MEAN_MOTION_DOT": 9.04e-06, "MEAN_MOTION_DDOT": 0}, "tle": {"line1": "1 30704U 99025ARN 25338.53447845  .00000904  00000+0  60217-3 0  9991", "line2": "2 30704  98.8707 337.4964 0081656 122.4922   3.5624 14.02032589959961"}}, "geometry": {"type": "Point", "coordinates": [-162.27573745462888, 75.91597388883672]}}, {"type": "Feature", "properties": {"norad_id": 30705, "name": "FENGYUN 1C DEB", "group": "fengyun-1c-debris", "lat": -77.44677965785156, "lon": 158.57579035346964, "alt_km": 833.2507169925802, "timestamp": "2025-12-06T07:31:40.515131+00:00", "meta": {"OBJECT_NAME": "FENGYUN 1C DEB", "OBJECT_ID": "1999-025ARP", "EPOCH": "2025-12-04T12:33:04.793760", "MEAN_MOTION": 13.81255549, "ECCENTRICITY": 0.0198736, "INCLINATION": 102.181, "RA_OF_ASC_NODE": 80.3375, "ARG_OF_PERICENTER": 301.6661, "MEAN_ANOMALY": 72.242, "EPHEMERIS_TYPE": 0, "CLASSIFICATION_TYPE": "U", "NORAD_CAT_ID": 30705, "ELEMENT_SET_NO": 999, "REV_AT_EPOCH": 93896, "BSTAR": 0.0040212, "MEAN_MOTION_DOT": 4.891e-05, "MEAN_MOTION_DDOT": 0}, "tle": {"line1": "1 30705U 99025ARP 25338.52297215  .00004891  00000+0  40212-2 0  9996", "line2": "2 30705 102.1810  80.3375 0198736 301.6661  72.2420 13.81255549938968"}}, "geometry": {"type": "Point", "coordinates": [158.57579035346964, -77.44677965785156]}}, {"type": "Feature", "properties": {"norad_id": 30706, "name": "FENGYUN 1C DEB", "group": "fengyun-1c-debris", "lat": -70.08972529097358, "lon": 28.539210814598995, "alt_km": 815.8594516485746, "timestamp": "2025-12-06T07:31:40.515141+00:00", "meta": {"OBJECT_NAME": "FENGYUN 1C DEB", "OBJECT_ID": "1999-025ARQ", "EPOCH": "2025-12-05T03:24:53.843904", "MEAN_MOTION": 14.2637843, "ECCENTRICITY": 0.00260914, "INCLINATION": 99.0659, "RA_OF_ASC_NODE": 233.4837, "ARG_OF_PERICENTER": 150.5793, "MEAN_ANOMALY": 209.6861, "EPHEMERIS_TYPE": 0, "CLASSIFICATION_TYPE": "U", "NORAD_CAT_ID": 30706, "ELEMENT_SET_NO": 999, "REV_AT_EPOCH": 97519, "BSTAR": 0.0018183106, "MEAN_MOTION_DOT": 4.342e-05, "MEAN_MOTION_DDOT": 0}, "tle": {"line1": "1 30706U 99025ARQ 25339.14228986  .00004342  00000+0  18183-2 0  9998", "line2": "2 30706  99.0659 233.4837 0026091 150.5793 209.6861 14.26378430975195"}}, "geometry": {"type": "Point", "coordinates": [28.539210814598995, -70.08972529097358]}}, {"type": "Feature", "properties": {"norad_id": 30707, "name": "FENGYUN 1C DEB", "group": "fengyun-1c-debris", "lat": 61.245817253524706, "lon": -128.1920890027402, "alt_km": 779.1631168143631, "timestamp": "2025-12-06T07:31:40.515152+00:00", "meta": {"OBJECT_NAME": "FENGYUN 1C DEB", "OBJECT_ID": "1999-025ARR", "EPOCH": "2025-12-04T19:55:25.798944", "MEAN_MOTION": 14.26602209, "ECCENTRICITY": 0.00283924, "INCLINATION": 99.4136, "RA_OF_ASC_NODE": 32.6156, "ARG_OF_PERICENTER": 92.5294, "MEAN_ANOMALY": 329.7906, "EPHEMERIS_TYPE": 0, "CLASSIFICATION_TYPE": "U", "NORAD_CAT_ID": 30707, "ELEMENT_SET_NO": 999, "REV_AT_EPOCH": 96690, "BSTAR": 0.003271385, "MEAN_MOTION_DOT": 7.89e-05, "MEAN_MOTION_DDOT": 0}, "tle": {"line1": "1 30707U 99025ARR 25338.83015971  .00007890  00000+0  32714-2 0  9999", "line2": "2 30707  99.4136  32.6156 0028392  92.5294 329.7906 14.26602209966907"}}, "geometry": {"type": "Point", "coordinates": [-128.1920890027402, 61.245817253524706]}}, {"type": "Feature", "properties": {"norad_id": 30708, "name": "FENGYUN 1C DEB", "group": "fengyun-1c-debris", "lat": 24.48391916446257, "lon": 178.14139276954614, "alt_km": 848.3140106294923, "timestamp": "2025-12-06T07:31:40.515163+00:00", "meta": {"OBJECT_NAME": "FENGYUN 1C DEB", "OBJECT_ID": "1999-025ARS", "EPOCH": "2025-12-05T07:03:46.618848", "MEAN_MOTION": 14.12172314, "ECCENTRICITY": 0.00077254, "INCLINATION": 98.6908, "RA_OF_ASC_NODE": 353.1592, "ARG_OF_PERICENTER": 216.6264, "MEAN_ANOMALY": 159.1448, "EPHEMERIS_TYPE": 0, "CLASSIFICATION_TYPE": "U", "NORAD_CAT_ID": 30708, "ELEMENT_SET_NO": 999, "REV_AT_EPOCH": 96731, "BSTAR": 0.00024603264, "MEAN_MOTION_DOT": 4.09e-06, "MEAN_MOTION_DDOT": 0}, "tle": {"line1": "1 30708U 99025ARS 25339.29428957  .00000409  00000+0  24603-3 0  9991", "line2": "2 30708  98.6908 353.1592 0007725 216.6264 159.1448 14.12172314967310"}}, "geometry": {"type": "Point", "coordinates": [178.14139276954614, 24.48391916446257]}}, {"type": "Feature", "properties": {"norad_id": 30709, "name": "FENGYUN 1C DEB", "group": "fengyun-1c-debris", "lat": 60.79499106252143, "lon": -58.65961139542942, "alt_km": 869.6185788219964, "timestamp": "2025-12-06T07:31:40.515173+00:00", "meta": {"OBJECT_NAME": "FENGYUN 1C DEB", "OBJECT_ID": "1999-025ART", "EPOCH": "2025-12-05T04:07:37.877952", "MEAN_MOTION": 14.17346614, "ECCENTRICITY": 0.00833178, "INCLINATION": 99.1435, "RA_OF_ASC_NODE": 316.9115, "ARG_OF_PERICENTER": 291.6369, "MEAN_ANOMALY": 67.5946, "EPHEMERIS_TYPE": 0, "CLASSIFICATION_TYPE": "U", "NORAD_CAT_ID": 30709, "ELEMENT_SET_NO": 999, "REV_AT_EPOCH": 95889, "BSTAR": 0.0053161994, "MEAN_MOTION_DOT": 0.00011095, "MEAN_MOTION_DDOT": 0}, "tle": {"line1": "1 30709U 99025ART 25339.17196618  .00011095  00000+0  53162-2 0  9999", "line2": "2 30709  99.1435 316.9115 0083317 291.6369  67.5946 14.17346614958899"}}, "geometry": {"type": "Point", "coordinates": [-58.65961139542942, 60.79499106252143]}}, {"type": "Feature", "properties": {"norad_id": 30710, "name": "FENGYUN 1C DEB", "group": "fengyun-1c-debris", "lat": 63.69476122625918, "lon": 74.35600340800016, "alt_km": 750.5230477152691, "timestamp": "2025-12-06T07:31:40.515183+00:00", "meta": {"OBJECT_NAME": "FENGYUN 1C DEB", "OBJECT_ID": "1999-025ARU", "EPOCH": "2025-12-04T11:03:50.889888", "MEAN_MOTION": 13.94066259, "ECCENTRICITY": 0.0222726, "INCLINATION": 102.7466, "RA_OF_ASC_NODE": 224.5575, "ARG_OF_PERICENTER": 102.9253, "MEAN_ANOMALY": 76.0711, "EPHEMERIS_TYPE": 0, "CLASSIFICATION_TYPE": "U", "NORAD_CAT_ID": 30710, "ELEMENT_SET_NO": 999, "REV_AT_EPOCH": 94673, "BSTAR": 0.0042718, "MEAN_MOTION_DOT": 6.883e-05, "MEAN_MOTION_DDOT": 0}, "tle": {"line1": "1 30710U 99025ARU 25338.46100567  .00006883  00000+0  42718-2 0  9994", "line2": "2 30710 102.7466 224.5575 0222726 102.9253  76.0711 13.94066259946738"}}, "geometry": {"type": "Point", "coordinates": [74.35600340800016, 63.69476122625918]}}, {"type": "Feature", "properties": {"norad_id": 30714, "name": "FENGYUN 1C DEB", "group": "fengyun-1c-debris", "lat": -66.94668974995078, "lon": -172.42352209039726, "alt_km": 859.7540108363564, "timestamp": "2025-12-06T07:31:40.515194+00:00", "meta": {"OBJECT_NAME": "FENGYUN 1C DEB", "OBJECT_ID": "1999-025ARY", "EPOCH": "2025-12-05T00:06:03.057120", "MEAN_MOTION": 14.03271868, "ECCENTRICITY": 0.00668681, "INCLINATION": 98.8384, "RA_OF_ASC_NODE": 27.7494, "ARG_OF_PERICENTER": 304.4857, "MEAN_ANOMALY": 173.2314, "EPHEMERIS_TYPE": 0, "CLASSIFICATION_TYPE": "U", "NORAD_CAT_ID": 30714, "ELEMENT_SET_NO": 999, "REV_AT_EPOCH": 95884, "BSTAR": 0.001157356, "MEAN_MOTION_DOT": 1.798e-05, "MEAN_MOTION_DDOT": 0}, "tle": {"line1": "1 30714U 99025ARY 25339.00420205  .00001798  00000+0  11574-2 0  9999", "line2": "2 30714  98.8384  27.7494 0066868 304.4857 173.2314 14.03271868958840"}}, "geometry": {"type": "Point", "coordinates": [-172.42352209039726, -66.94668974995078]}}]}